{
  "type": "FeatureCollection",
  "features": [
    {
      "type": "Feature",
      "properties": {
        "norad_id": 38867,
        "name": "INTELSAT 23 (IS-23)",
        "group": "intelsat",
        "lat": 0.031817557451695115,
        "lon": 172.05914408260406,
        "alt_km": 35781.392837688654,
        "timestamp": "2025-12-09T09:46:47.314939+00:00",
        "meta_object_name": "INTELSAT 23 (IS-23)",
        "meta_object_id": "2012-057A",
        "meta_epoch": "2025-12-08T21:54:46.242144",
        "meta_mean_motion": 1.00260603,
        "meta_eccentricity": 0.00020701,
        "meta_inclination": 0.0414,
        "meta_ra_of_asc_node": 93.9999,
        "meta_arg_of_pericenter": 103.0595,
        "meta_mean_anomaly": 156.5414,
        "meta_ephemeris_type": 0,
        "meta_classification_type": "U",
        "meta_norad_cat_id": 38867,
        "meta_element_set_no": 999,
        "meta_rev_at_epoch": 4804,
        "meta_bstar": 0,
        "meta_mean_motion_dot": -2.83e-06,
        "meta_mean_motion_ddot": 0,
        "tle_line1": "1 38867U 12057A   25342.91303521 -.00000283  00000+0  00000+0 0  9999",
        "tle_line2": "2 38867   0.0414  93.9999 0002070 103.0595 156.5414  1.00260603 48043"
      },
      "geometry": {
        "type": "Point",
        "coordinates": [
          172.05914408260406,
          0.031817557451695115
        ]
      }
    },
    {
      "type": "Feature",
      "properties": {
        "norad_id": 39360,
        "name": "FM-6",
        "group": "intelsat",
        "lat": 0.005076420513629511,
        "lon": 108.90538110058341,
        "alt_km": 35781.18322359589,
        "timestamp": "2025-12-09T09:46:47.314952+00:00",
        "meta_object_name": "FM-6",
        "meta_object_id": "2013-058A",
        "meta_epoch": "2025-12-08T13:15:20.428992",
        "meta_mean_motion": 1.0026711,
        "meta_eccentricity": 0.000319,
        "meta_inclination": 0.0119,
        "meta_ra_of_asc_node": 96.1147,
        "meta_arg_of_pericenter": 75.3013,
        "meta_mean_anomaly": 348.8342,
        "meta_ephemeris_type": 0,
        "meta_classification_type": "U",
        "meta_norad_cat_id": 39360,
        "meta_element_set_no": 999,
        "meta_rev_at_epoch": 4416,
        "meta_bstar": 0,
        "meta_mean_motion_dot": -1.4e-07,
        "meta_mean_motion_ddot": 0,
        "tle_line1": "1 39360U 13058A   25342.55231978 -.00000014  00000+0  00000+0 0  9998",
        "tle_line2": "2 39360   0.0119  96.1147 0003190  75.3013 348.8342  1.00267110 44169"
      },
      "geometry": {
        "type": "Point",
        "coordinates": [
          108.90538110058341,
          0.005076420513629511
        ]
      }
    },
    {
      "type": "Feature",
      "properties": {
        "norad_id": 40271,
        "name": "INTELSAT 30 (IS-30)",
        "group": "intelsat",
        "lat": 0.024161916041786972,
        "lon": 130.0478624003991,
        "alt_km": 35781.825468728595,
        "timestamp": "2025-12-09T09:46:47.314964+00:00",
        "meta_object_name": "INTELSAT 30 (IS-30)",
        "meta_object_id": "2014-062A",
        "meta_epoch": "2025-12-09T04:04:38.821728",
        "meta_mean_motion": 1.00272205,
        "meta_eccentricity": 0.000131,
        "meta_inclination": 0.013,
        "meta_ra_of_asc_node": 15.3198,
        "meta_arg_of_pericenter": 73.1869,
        "meta_mean_anomaly": 315.7647,
        "meta_ephemeris_type": 0,
        "meta_classification_type": "U",
        "meta_norad_cat_id": 40271,
        "meta_element_set_no": 999,
        "meta_rev_at_epoch": 487,
        "meta_bstar": 0,
        "meta_mean_motion_dot": -1.49e-06,
        "meta_mean_motion_ddot": 0,
        "tle_line1": "1 40271U 14062A   25343.16989377 -.00000149  00000+0  00000+0 0  9997",
        "tle_line2": "2 40271   0.0130  15.3198 0001310  73.1869 315.7647  1.00272205  4877"
      },
      "geometry": {
        "type": "Point",
        "coordinates": [
          130.0478624003991,
          0.024161916041786972
        ]
      }
    },
    {
      "type": "Feature",
      "properties": {
        "norad_id": 40333,
        "name": "DIRECTV 14",
        "group": "intelsat",
        "lat": 0.018202746354818406,
        "lon": 125.87089599058434,
        "alt_km": 35786.67439816284,
        "timestamp": "2025-12-09T09:46:47.314976+00:00",
        "meta_object_name": "DIRECTV 14",
        "meta_object_id": "2014-078B",
        "meta_epoch": "2025-12-09T04:26:37.402368",
        "meta_mean_motion": 1.00269626,
        "meta_eccentricity": 2.67e-05,
        "meta_inclination": 0.0173,
        "meta_ra_of_asc_node": 330.7931,
        "meta_arg_of_pericenter": 243.889,
        "meta_mean_anomaly": 190.9367,
        "meta_ephemeris_type": 0,
        "meta_classification_type": "U",
        "meta_norad_cat_id": 40333,
        "meta_element_set_no": 999,
        "meta_rev_at_epoch": 4013,
        "meta_bstar": 0,
        "meta_mean_motion_dot": -1.23e-06,
        "meta_mean_motion_ddot": 0,
        "tle_line1": "1 40333U 14078B   25343.18515512 -.00000123  00000+0  00000+0 0  9993",
        "tle_line2": "2 40333   0.0173 330.7931 0000267 243.8890 190.9367  1.00269626 40136"
      },
      "geometry": {
        "type": "Point",
        "coordinates": [
          125.87089599058434,
          0.018202746354818406
        ]
      }
    },
    {
      "type": "Feature",
      "properties": {
        "norad_id": 40663,
        "name": "DIRECTV 15",
        "group": "intelsat",
        "lat": 0.035338936648022824,
        "lon": 122.22403690504156,
        "alt_km": 35788.10987813666,
        "timestamp": "2025-12-09T09:46:47.314989+00:00",
        "meta_object_name": "DIRECTV 15",
        "meta_object_id": "2015-026A",
        "meta_epoch": "2025-12-08T14:49:37.716960",
        "meta_mean_motion": 1.0026899,
        "meta_eccentricity": 3.149e-05,
        "meta_inclination": 0.0368,
        "meta_ra_of_asc_node": 78.2463,
        "meta_arg_of_pericenter": 203.1344,
        "meta_mean_anomaly": 275.7875,
        "meta_ephemeris_type": 0,
        "meta_classification_type": "U",
        "meta_norad_cat_id": 40663,
        "meta_element_set_no": 999,
        "meta_rev_at_epoch": 3855,
        "meta_bstar": 0,
        "meta_mean_motion_dot": -1e-06,
        "meta_mean_motion_ddot": 0,
        "tle_line1": "1 40663U 15026A   25342.61779765 -.00000100  00000+0  00000+0 0  9997",
        "tle_line2": "2 40663   0.0368  78.2463 0000314 203.1344 275.7875  1.00268990 38550"
      },
      "geometry": {
        "type": "Point",
        "coordinates": [
          122.22403690504156,
          0.035338936648022824
        ]
      }
    },
    {
      "type": "Feature",
      "properties": {
        "norad_id": 40664,
        "name": "SKY MEXICO-1",
        "group": "intelsat",
        "lat": 0.025143783706118673,
        "lon": 146.3007592049917,
        "alt_km": 35793.37998416596,
        "timestamp": "2025-12-09T09:46:47.315001+00:00",
        "meta_object_name": "SKY MEXICO-1",
        "meta_object_id": "2015-026B",
        "meta_epoch": "2025-12-08T21:47:24.447840",
        "meta_mean_motion": 1.00270859,
        "meta_eccentricity": 0.00027564,
        "meta_inclination": 0.0226,
        "meta_ra_of_asc_node": 57.8612,
        "meta_arg_of_pericenter": 215.4183,
        "meta_mean_anomaly": 52.7141,
        "meta_ephemeris_type": 0,
        "meta_classification_type": "U",
        "meta_norad_cat_id": 40664,
        "meta_element_set_no": 999,
        "meta_rev_at_epoch": 3854,
        "meta_bstar": 0,
        "meta_mean_motion_dot": -2.32e-06,
        "meta_mean_motion_ddot": 0,
        "tle_line1": "1 40664U 15026B   25342.90792185 -.00000232  00000+0  00000+0 0  9997",
        "tle_line2": "2 40664   0.0226  57.8612 0002756 215.4183  52.7141  1.00270859 38547"
      },
      "geometry": {
        "type": "Point",
        "coordinates": [
          146.3007592049917,
          0.025143783706118673
        ]
      }
    },
    {
      "type": "Feature",
      "properties": {
        "norad_id": 40874,
        "name": "INTELSAT 34 (IS-34)",
        "group": "intelsat",
        "lat": -0.014337412153581794,
        "lon": 169.59942034969384,
        "alt_km": 35783.15117846083,
        "timestamp": "2025-12-09T09:46:47.315013+00:00",
        "meta_object_name": "INTELSAT 34 (IS-34)",
        "meta_object_id": "2015-039A",
        "meta_epoch": "2025-12-08T20:11:15.512064",
        "meta_mean_motion": 1.00271316,
        "meta_eccentricity": 7.484e-05,
        "meta_inclination": 0.0137,
        "meta_ra_of_asc_node": 305.0745,
        "meta_arg_of_pericenter": 229.1889,
        "meta_mean_anomaly": 150.9006,
        "meta_ephemeris_type": 0,
        "meta_classification_type": "U",
        "meta_norad_cat_id": 40874,
        "meta_element_set_no": 999,
        "meta_rev_at_epoch": 3771,
        "meta_bstar": 0,
        "meta_mean_motion_dot": -2.83e-06,
        "meta_mean_motion_ddot": 0,
        "tle_line1": "1 40874U 15039A   25342.84115176 -.00000283  00000+0  00000+0 0  9992",
        "tle_line2": "2 40874   0.0137 305.0745 0000748 229.1889 150.9006  1.00271316 37718"
      },
      "geometry": {
        "type": "Point",
        "coordinates": [
          169.59942034969384,
          -0.014337412153581794
        ]
      }
    }
  ]
}